{
  "type": "FeatureCollection",
  "features": [
    {
      "type": "Feature",
      "properties": {
        "norad_id": 36585,
        "name": "GPS BIIF-1  (PRN 25)",
        "group": "gnss",
        "lat": -21.01587114130711,
        "lon": -159.8918799520778,
        "alt_km": 20188.833705080946,
        "timestamp": "2025-12-11T10:53:16.126788+00:00",
        "meta_object_name": "GPS BIIF-1  (PRN 25)",
        "meta_object_id": "2010-022A",
        "meta_epoch": "2025-12-11T05:47:33.116064",
        "meta_mean_motion": 2.00553131,
        "meta_eccentricity": 0.0126048,
        "meta_inclination": 54.3003,
        "meta_ra_of_asc_node": 216.1344,
        "meta_arg_of_pericenter": 65.0548,
        "meta_mean_anomaly": 116.9691,
        "meta_ephemeris_type": 0,
        "meta_classification_type": "U",
        "meta_norad_cat_id": 36585,
        "meta_element_set_no": 999,
        "meta_rev_at_epoch": 11382,
        "meta_bstar": 0,
        "meta_mean_motion_dot": 1.3e-07,
        "meta_mean_motion_ddot": 0,
        "tle_line1": "1 36585U 10022A   25345.24135551  .00000013  00000+0  00000+0 0  9999",
        "tle_line2": "2 36585  54.3003 216.1344 0126048  65.0548 116.9691  2.00553131113822"
      },
      "geometry": {
        "type": "Point",
        "coordinates": [
          -159.8918799520778,
          -21.01587114130711
        ]
      }
    },
    {
      "type": "Feature",
      "properties": {
        "norad_id": 36828,
        "name": "BEIDOU-2 IGSO-1 (C06)",
        "group": "gnss",
        "lat": -5.4226794247864545,
        "lon": -11.427559528077982,
        "alt_km": 35597.67421284577,
        "timestamp": "2025-12-11T10:53:16.126800+00:00",
        "meta_object_name": "BEIDOU-2 IGSO-1 (C06)",
        "meta_object_id": "2010-036A",
        "meta_epoch": "2025-12-10T22:02:21.652224",
        "meta_mean_motion": 1.00276584,
        "meta_eccentricity": 0.0051188,
        "meta_inclination": 54.2844,
        "meta_ra_of_asc_node": 164.6636,
        "meta_arg_of_pericenter": 215.8581,
        "meta_mean_anomaly": 137.825,
        "meta_ephemeris_type": 0,
        "meta_classification_type": "U",
        "meta_norad_cat_id": 36828,
        "meta_element_set_no": 999,
        "meta_rev_at_epoch": 5620,
        "meta_bstar": 0,
        "meta_mean_motion_dot": -5.7e-07,
        "meta_mean_motion_ddot": 0,
        "tle_line1": "1 36828U 10036A   25344.91830616 -.00000057  00000+0  00000+0 0  9990",
        "tle_line2": "2 36828  54.2844 164.6636 0051188 215.8581 137.8250  1.00276584 56203"
      },
      "geometry": {
        "type": "Point",
        "coordinates": [
          -11.427559528077982,
          -5.4226794247864545
        ]
      }
    },
    {
      "type": "Feature",
      "properties": {
        "norad_id": 37210,
        "name": "BEIDOU-2 G4 (C04)",
        "group": "gnss",
        "lat": -1.3818606941958445,
        "lon": 43.911464814184704,
        "alt_km": 35823.67552475947,
        "timestamp": "2025-12-11T10:53:16.126812+00:00",
        "meta_object_name": "BEIDOU-2 G4 (C04)",
        "meta_object_id": "2010-057A",
        "meta_epoch": "2025-12-11T04:00:01.931328",
        "meta_mean_motion": 1.00271338,
        "meta_eccentricity": 0.0010943,
        "meta_inclination": 3.181,
        "meta_ra_of_asc_node": 69.9412,
        "meta_arg_of_pericenter": 190.3244,
        "meta_mean_anomaly": 39.9467,
        "meta_ephemeris_type": 0,
        "meta_classification_type": "U",
        "meta_norad_cat_id": 37210,
        "meta_element_set_no": 999,
        "meta_rev_at_epoch": 5540,
        "meta_bstar": 0,
        "meta_mean_motion_dot": -1.06e-06,
        "meta_mean_motion_ddot": 0,
        "tle_line1": "1 37210U 10057A   25345.16668902 -.00000106  00000+0  00000+0 0  9999",
        "tle_line2": "2 37210   3.1810  69.9412 0010943 190.3244  39.9467  1.00271338 55406"
      },
      "geometry": {
        "type": "Point",
        "coordinates": [
          43.911464814184704,
          -1.3818606941958445
        ]
      }
    },
    {
      "type": "Feature",
      "properties": {
        "norad_id": 37256,
        "name": "BEIDOU-2 IGSO-2 (C07)",
        "group": "gnss",
        "lat": 46.26324648774522,
        "lon": -15.204514120421765,
        "alt_km": 35933.777548159116,
        "timestamp": "2025-12-11T10:53:16.126824+00:00",
        "meta_object_name": "BEIDOU-2 IGSO-2 (C07)",
        "meta_object_id": "2010-068A",
        "meta_epoch": "2025-12-03T17:22:36.027840",
        "meta_mean_motion": 1.0028872,
        "meta_eccentricity": 0.00492449,
        "meta_inclination": 47.9042,
        "meta_ra_of_asc_node": 274.2614,
        "meta_arg_of_pericenter": 216.1411,
        "meta_mean_anomaly": 310.24,
        "meta_ephemeris_type": 0,
        "meta_classification_type": "U",
        "meta_norad_cat_id": 37256,
        "meta_element_set_no": 999,
        "meta_rev_at_epoch": 5483,
        "meta_bstar": 0,
        "meta_mean_motion_dot": -2.25e-06,
        "meta_mean_motion_ddot": 0,
        "tle_line1": "1 37256U 10068A   25337.72402810 -.00000225  00000+0  00000+0 0  9990",
        "tle_line2": "2 37256  47.9042 274.2614 0049244 216.1411 310.2400  1.00288720 54834"
      },
      "geometry": {
        "type": "Point",
        "coordinates": [
          -15.204514120421765,
          46.26324648774522
        ]
      }
    },
    {
      "type": "Feature",
      "properties": {
        "norad_id": 37384,
        "name": "BEIDOU-2 IGSO-3 (C08)",
        "group": "gnss",
        "lat": -42.90156800371855,
        "lon": 12.559857413066315,
        "alt_km": 35871.53396611737,
        "timestamp": "2025-12-11T10:53:16.126838+00:00",
        "meta_object_name": "BEIDOU-2 IGSO-3 (C08)",
        "meta_object_id": "2011-013A",
        "meta_epoch": "2025-12-11T02:02:50.654400",
        "meta_mean_motion": 1.00270762,
        "meta_eccentricity": 0.0035342,
        "meta_inclination": 62.1408,
        "meta_ra_of_asc_node": 41.9319,
        "meta_arg_of_pericenter": 187.1031,
        "meta_mean_anomaly": 349.3097,
        "meta_ephemeris_type": 0,
        "meta_classification_type": "U",
        "meta_norad_cat_id": 37384,
        "meta_element_set_no": 999,
        "meta_rev_at_epoch": 5377,
        "meta_bstar": 0,
        "meta_mean_motion_dot": -1.95e-06,
        "meta_mean_motion_ddot": 0,
        "tle_line1": "1 37384U 11013A   25345.08530850 -.00000195  00000+0  00000+0 0  9993",
        "tle_line2": "2 37384  62.1408  41.9319 0035342 187.1031 349.3097  1.00270762 53775"
      },
      "geometry": {
        "type": "Point",
        "coordinates": [
          12.559857413066315,
          -42.90156800371855
        ]
      }
    },
    {
      "type": "Feature",
      "properties": {
        "norad_id": 37605,
        "name": "GSAT-8 (GAGAN/PRN 127)",
        "group": "gnss",
        "lat": -0.9493888111390351,
        "lon": -61.14530993420771,
        "alt_km": 35754.82344928944,
        "timestamp": "2025-12-11T10:53:16.126850+00:00",
        "meta_object_name": "GSAT-8 (GAGAN/PRN 127)",
        "meta_object_id": "2011-022A",
        "meta_epoch": "2025-12-11T03:30:04.800096",
        "meta_mean_motion": 1.00270749,
        "meta_eccentricity": 0.0008812,
        "meta_inclination": 1.646,
        "meta_ra_of_asc_node": 84.202,
        "meta_arg_of_pericenter": 182.7452,
        "meta_mean_anomaly": 280.7671,
        "meta_ephemeris_type": 0,
        "meta_classification_type": "U",
        "meta_norad_cat_id": 37605,
        "meta_element_set_no": 999,
        "meta_rev_at_epoch": 5133,
        "meta_bstar": 0,
        "meta_mean_motion_dot": 9.1e-07,
        "meta_mean_motion_ddot": 0,
        "tle_line1": "1 37605U 11022A   25345.14588889  .00000091  00000+0  00000+0 0  9995",
        "tle_line2": "2 37605   1.6460  84.2020 0008812 182.7452 280.7671  1.00270749 51337"
      },
      "geometry": {
        "type": "Point",
        "coordinates": [
          -61.14530993420771,
          -0.9493888111390351
        ]
      }
    },
    {
      "type": "Feature",
      "properties": {
        "norad_id": 37763,
        "name": "BEIDOU-2 IGSO-4 (C09)",
        "group": "gnss",
        "lat": 8.720000973103062,
        "lon": -18.9203013535504,
        "alt_km": 35470.62155690128,
        "timestamp": "2025-12-11T10:53:16.126862+00:00",
        "meta_object_name": "BEIDOU-2 IGSO-4 (C09)",
        "meta_object_id": "2011-038A",
        "meta_epoch": "2025-12-10T12:04:03.489024",
        "meta_mean_motion": 1.00284678,
        "meta_eccentricity": 0.01490344,
        "meta_inclination": 54.5829,
        "meta_ra_of_asc_node": 167.3658,
        "meta_arg_of_pericenter": 230.2355,
        "meta_mean_anomaly": 317.2212,
        "meta_ephemeris_type": 0,
        "meta_classification_type": "U",
        "meta_norad_cat_id": 37763,
        "meta_element_set_no": 999,
        "meta_rev_at_epoch": 5275,
        "meta_bstar": 0,
        "meta_mean_motion_dot": 3.6e-07,
        "meta_mean_motion_ddot": 0,
        "tle_line1": "1 37763U 11038A   25344.50281816  .00000036  00000+0  00000+0 0  9995",
        "tle_line2": "2 37763  54.5829 167.3658 0149034 230.2355 317.2212  1.00284678 52751"
      },
      "geometry": {
        "type": "Point",
        "coordinates": [
          -18.9203013535504,
          8.720000973103062
        ]
      }
    }
  ]
}